start=new Date('2023-04-11T00:00:00.000Z').valueOf();
sats=[{"COUNTRY_CODE":"US","ECCENTRICITY":"0.00011670","TLE_LINE1":"1 53264U 22086Y   23100.79103621  .00003530  00000-0  23972-3 0  9990","ARG_OF_PERICENTER":"77.3953","INCLINATION":"53.2153","PERIOD":"95.437","FILE":"3885363","GP_ID":"229879458","SEMIMAJOR_AXIS":"6917.852","RCS_SIZE":"LARGE","SITE":"AFETR","OBJECT_TYPE":"PAYLOAD","NORAD_CAT_ID":"53264","REF_FRAME":"TEME","EPHEMERIS_TYPE":"0","RA_OF_ASC_NODE":"290.1508","LAUNCH_DATE":"2022-07-24","TLE_LINE2":"2 53264  53.2153 290.1508 0001167  77.3953 282.7169 15.08849357 40453","MEAN_MOTION_DDOT":"0.0000000000000","TIME_SYSTEM":"UTC","CENTER_NAME":"EARTH","MEAN_ELEMENT_THEORY":"SGP4","PERIAPSIS":"538.909","MEAN_ANOMALY":"282.7169","APOAPSIS":"540.524","BSTAR":"0.00023972000000","EPOCH":"2023-04-10T18:59:05.528544","CLASSIFICATION_TYPE":"U","MEAN_MOTION":"15.08849357","ELEMENT_SET_NO":"999","OBJECT_NAME":"STARLINK-3950","REV_AT_EPOCH":"4045","DECAY_DATE":null,"OBJECT_ID":"2022-086Y","MEAN_MOTION_DOT":"0.00003530"},{"MEAN_ELEMENT_THEORY":"SGP4","PERIAPSIS":"538.962","MEAN_ANOMALY":"283.1805","APOAPSIS":"540.433","BSTAR":"0.00074394000000","TLE_LINE2":"2 53265  53.2157 289.6181 0001063  76.9305 283.1805 15.08855728 40472","TIME_SYSTEM":"UTC","MEAN_MOTION_DDOT":"0.0000000000000","CENTER_NAME":"EARTH","OBJECT_NAME":"STARLINK-4097","REV_AT_EPOCH":"4047","DECAY_DATE":null,"OBJECT_ID":"2022-086Z","MEAN_MOTION_DOT":"0.00011577","CLASSIFICATION_TYPE":"U","EPOCH":"2023-04-10T21:48:39.890592","MEAN_MOTION":"15.08855728","ELEMENT_SET_NO":"999","FILE":"3885363","COUNTRY_CODE":"US","ECCENTRICITY":"0.00010630","TLE_LINE1":"1 53265U 22086Z   23100.90879503  .00011577  00000-0  74394-3 0  9997","ARG_OF_PERICENTER":"76.9305","INCLINATION":"53.2157","PERIOD":"95.437","RA_OF_ASC_NODE":"289.6181","EPHEMERIS_TYPE":"0","LAUNCH_DATE":"2022-07-24","GP_ID":"229879705","RCS_SIZE":"LARGE","SEMIMAJOR_AXIS":"6917.832","OBJECT_TYPE":"PAYLOAD","SITE":"AFETR","REF_FRAME":"TEME","NORAD_CAT_ID":"53265"},{"EPHEMERIS_TYPE":"0","RA_OF_ASC_NODE":"290.1985","LAUNCH_DATE":"2022-07-24","GP_ID":"229880460","SEMIMAJOR_AXIS":"6917.856","RCS_SIZE":"LARGE","OBJECT_TYPE":"PAYLOAD","SITE":"AFETR","NORAD_CAT_ID":"53266","REF_FRAME":"TEME","FILE":"3885363","COUNTRY_CODE":"US","TLE_LINE1":"1 53266U 22086AA  23100.77999469  .00004343  00000-0  29073-3 0  9994","ECCENTRICITY":"0.00013170","ARG_OF_PERICENTER":"77.4567","INCLINATION":"53.2154","PERIOD":"95.437","OBJECT_NAME":"STARLINK-4058","REV_AT_EPOCH":"4045","DECAY_DATE":null,"OBJECT_ID":"2022-086AA","MEAN_MOTION_DOT":"0.00004343","EPOCH":"2023-04-10T18:43:11.541216","CLASSIFICATION_TYPE":"U","MEAN_MOTION":"15.08848132","ELEMENT_SET_NO":"999","MEAN_ELEMENT_THEORY":"SGP4","PERIAPSIS":"538.809","MEAN_ANOMALY":"282.6572","APOAPSIS":"540.632","BSTAR":"0.00029073000000","TLE_LINE2":"2 53266  53.2154 290.1985 0001317  77.4567 282.6572 15.08848132 40451","CENTER_NAME":"EARTH","MEAN_MOTION_DDOT":"0.0000000000000","TIME_SYSTEM":"UTC"},{"PERIOD":"95.435","INCLINATION":"53.2156","ARG_OF_PERICENTER":"91.5977","ECCENTRICITY":"0.00008690","TLE_LINE1":"1 53267U 22086AB  23100.90143659  .00014211  00000-0  90828-3 0  9993","COUNTRY_CODE":"US","FILE":"3885363","REF_FRAME":"TEME","NORAD_CAT_ID":"53267","OBJECT_TYPE":"PAYLOAD","SITE":"AFETR","RCS_SIZE":"LARGE","SEMIMAJOR_AXIS":"6917.774","GP_ID":"229881198","LAUNCH_DATE":"2022-07-24","RA_OF_ASC_NODE":"289.6505","EPHEMERIS_TYPE":"0","MEAN_MOTION_DDOT":"0.0000000000000","TIME_SYSTEM":"UTC","CENTER_NAME":"EARTH","TLE_LINE2":"2 53267  53.2156 289.6505 0000869  91.5977 268.5114 15.08874741 40470","BSTAR":"0.00090828000000","APOAPSIS":"540.240","PERIAPSIS":"539.038","MEAN_ANOMALY":"268.5114","MEAN_ELEMENT_THEORY":"SGP4","ELEMENT_SET_NO":"999","MEAN_MOTION":"15.08874741","CLASSIFICATION_TYPE":"U","EPOCH":"2023-04-10T21:38:04.121376","MEAN_MOTION_DOT":"0.00014211","OBJECT_ID":"2022-086AB","DECAY_DATE":null,"REV_AT_EPOCH":"4047","OBJECT_NAME":"STARLINK-4060"},{"LAUNCH_DATE":"2022-07-24","EPHEMERIS_TYPE":"0","RA_OF_ASC_NODE":"290.8258","REF_FRAME":"TEME","NORAD_CAT_ID":"53268","RCS_SIZE":"LARGE","SEMIMAJOR_AXIS":"6917.885","SITE":"AFETR","OBJECT_TYPE":"PAYLOAD","GP_ID":"229879958","FILE":"3885363","PERIOD":"95.438","INCLINATION":"53.2156","TLE_LINE1":"1 53268U 22086AC  23100.64015417  .00001238  00000-0  95863-4 0  9995","ECCENTRICITY":"0.00010900","ARG_OF_PERICENTER":"98.2826","COUNTRY_CODE":"US","MEAN_MOTION_DOT":"0.00001238","OBJECT_ID":"2022-086AC","DECAY_DATE":null,"OBJECT_NAME":"STARLINK-4109","REV_AT_EPOCH":"4043","MEAN_MOTION":"15.08838559","ELEMENT_SET_NO":"999","CLASSIFICATION_TYPE":"U","EPOCH":"2023-04-10T15:21:49.320288","APOAPSIS":"540.504","BSTAR":"0.00009586300000","PERIAPSIS":"538.996","MEAN_ANOMALY":"261.8289","MEAN_ELEMENT_THEORY":"SGP4","CENTER_NAME":"EARTH","MEAN_MOTION_DDOT":"0.0000000000000","TIME_SYSTEM":"UTC","TLE_LINE2":"2 53268  53.2156 290.8258 0001090  98.2826 261.8289 15.08838559 40436"},{"MEAN_MOTION":"15.08866676","ELEMENT_SET_NO":"999","EPOCH":"2023-04-10T21:28:47.380512","CLASSIFICATION_TYPE":"U","MEAN_MOTION_DOT":"0.00015424","DECAY_DATE":null,"OBJECT_ID":"2022-086AD","OBJECT_NAME":"STARLINK-4057","REV_AT_EPOCH":"4060","TIME_SYSTEM":"UTC","MEAN_MOTION_DDOT":"0.0000000000000","CENTER_NAME":"EARTH","TLE_LINE2":"2 53269  53.2157 279.6789 0001173  88.9598 271.1528 15.08866676 40606","APOAPSIS":"540.475","BSTAR":"0.00098434000000","PERIAPSIS":"538.852","MEAN_ANOMALY":"271.1528","MEAN_ELEMENT_THEORY":"SGP4","NORAD_CAT_ID":"53269","REF_FRAME":"TEME","RCS_SIZE":"LARGE","SEMIMAJOR_AXIS":"6917.799","OBJECT_TYPE":"PAYLOAD","SITE":"AFETR","GP_ID":"229880205","LAUNCH_DATE":"2022-07-24","RA_OF_ASC_NODE":"279.6789","EPHEMERIS_TYPE":"0","PERIOD":"95.436","INCLINATION":"53.2157","TLE_LINE1":"1 53269U 22086AD  23100.89499283  .00015424  00000-0  98434-3 0  9998","ECCENTRICITY":"0.00011730","ARG_OF_PERICENTER":"88.9598","COUNTRY_CODE":"US","FILE":"3885363"},{"COUNTRY_CODE":"US","ARG_OF_PERICENTER":"89.0433","ECCENTRICITY":"0.00012960","TLE_LINE1":"1 53271U 22086AF  23100.88763678  .00005353  00000-0  35403-3 0  9999","INCLINATION":"53.2168","PERIOD":"95.437","FILE":"3885306","GP_ID":"229855443","SITE":"AFETR","OBJECT_TYPE":"PAYLOAD","SEMIMAJOR_AXIS":"6917.846","RCS_SIZE":"LARGE","REF_FRAME":"TEME","NORAD_CAT_ID":"53271","EPHEMERIS_TYPE":"0","RA_OF_ASC_NODE":"279.7110","LAUNCH_DATE":"2022-07-24","TLE_LINE2":"2 53271  53.2168 279.7110 0001296  89.0433 271.0708 15.08851396 40428","CENTER_NAME":"EARTH","MEAN_MOTION_DDOT":"0.0000000000000","TIME_SYSTEM":"UTC","MEAN_ELEMENT_THEORY":"SGP4","MEAN_ANOMALY":"271.0708","PERIAPSIS":"538.814","BSTAR":"0.00035403000000","APOAPSIS":"540.607","CLASSIFICATION_TYPE":"U","EPOCH":"2023-04-10T21:18:11.817792","ELEMENT_SET_NO":"999","MEAN_MOTION":"15.08851396","REV_AT_EPOCH":"4042","OBJECT_NAME":"STARLINK-4069","OBJECT_ID":"2022-086AF","DECAY_DATE":null,"MEAN_MOTION_DOT":"0.00005353"},{"INCLINATION":"53.2154","PERIOD":"95.436","COUNTRY_CODE":"US","ARG_OF_PERICENTER":"83.0919","TLE_LINE1":"1 53272U 22086AG  23100.89867315  .00007459  00000-0  48601-3 0  9997","ECCENTRICITY":"0.00011570","FILE":"3885363","REF_FRAME":"TEME","NORAD_CAT_ID":"53272","GP_ID":"229880700","SITE":"AFETR","OBJECT_TYPE":"PAYLOAD","RCS_SIZE":"LARGE","SEMIMAJOR_AXIS":"6917.826","LAUNCH_DATE":"2022-07-24","EPHEMERIS_TYPE":"0","RA_OF_ASC_NODE":"279.6622","TIME_SYSTEM":"UTC","MEAN_MOTION_DDOT":"0.0000000000000","CENTER_NAME":"EARTH","TLE_LINE2":"2 53272  53.2154 279.6622 0001157  83.0919 277.0205 15.08857887 40609","PERIAPSIS":"538.890","MEAN_ANOMALY":"277.0205","BSTAR":"0.00048601000000","APOAPSIS":"540.491","MEAN_ELEMENT_THEORY":"SGP4","ELEMENT_SET_NO":"999","MEAN_MOTION":"15.08857887","CLASSIFICATION_TYPE":"U","EPOCH":"2023-04-10T21:34:05.360160","MEAN_MOTION_DOT":"0.00007459","REV_AT_EPOCH":"4060","OBJECT_NAME":"STARLINK-4122","OBJECT_ID":"2022-086AG","DECAY_DATE":null},{"MEAN_ELEMENT_THEORY":"SGP4","MEAN_ANOMALY":"268.3365","PERIAPSIS":"539.028","APOAPSIS":"540.315","BSTAR":"0.00108350000000","TLE_LINE2":"2 53273  53.2141 279.7413 0000930  91.7734 268.3365 15.08864272 40598","TIME_SYSTEM":"UTC","MEAN_MOTION_DDOT":"0.0000000000000","CENTER_NAME":"EARTH","OBJECT_NAME":"STARLINK-4051","REV_AT_EPOCH":"4059","DECAY_DATE":null,"OBJECT_ID":"2022-086AH","MEAN_MOTION_DOT":"0.00017009","CLASSIFICATION_TYPE":"U","EPOCH":"2023-04-10T21:07:35.613984","MEAN_MOTION":"15.08864272","ELEMENT_SET_NO":"999","FILE":"3885363","COUNTRY_CODE":"US","ECCENTRICITY":"0.00009300","TLE_LINE1":"1 53273U 22086AH  23100.88027331  .00017009  00000-0  10835-2 0  9992","ARG_OF_PERICENTER":"91.7734","INCLINATION":"53.2141","PERIOD":"95.436","RA_OF_ASC_NODE":"279.7413","EPHEMERIS_TYPE":"0","LAUNCH_DATE":"2022-07-24","GP_ID":"229879459","RCS_SIZE":"LARGE","SEMIMAJOR_AXIS":"6917.806","SITE":"AFETR","OBJECT_TYPE":"PAYLOAD","NORAD_CAT_ID":"53273","REF_FRAME":"TEME"},{"PERIOD":"95.438","INCLINATION":"53.2166","ARG_OF_PERICENTER":"85.0427","TLE_LINE1":"1 53274U 22086AJ  23100.62635998  .00001886  00000-0  13653-3 0  9997","ECCENTRICITY":"0.00008520","COUNTRY_CODE":"US","FILE":"3885363","REF_FRAME":"TEME","NORAD_CAT_ID":"53274","OBJECT_TYPE":"PAYLOAD","SITE":"AFETR","SEMIMAJOR_AXIS":"6917.881","RCS_SIZE":"LARGE","GP_ID":"229879706","LAUNCH_DATE":"2022-07-24","EPHEMERIS_TYPE":"0","RA_OF_ASC_NODE":"280.8854","TIME_SYSTEM":"UTC","MEAN_MOTION_DDOT":"0.0000000000000","CENTER_NAME":"EARTH","TLE_LINE2":"2 53274  53.2166 280.8854 0000852  85.0427 275.0663 15.08839927 40568","BSTAR":"0.00013653000000","APOAPSIS":"540.335","MEAN_ANOMALY":"275.0663","PERIAPSIS":"539.156","MEAN_ELEMENT_THEORY":"SGP4","ELEMENT_SET_NO":"999","MEAN_MOTION":"15.08839927","EPOCH":"2023-04-10T15:01:57.502272","CLASSIFICATION_TYPE":"U","MEAN_MOTION_DOT":"0.00001886","DECAY_DATE":null,"OBJECT_ID":"2022-086AJ","REV_AT_EPOCH":"4056","OBJECT_NAME":"STARLINK-4050"}];
